{
  "type": "FeatureCollection",
  "features": [
    {
      "type": "Feature",
      "properties": {
        "norad_id": 41581,
        "name": "INTELSAT 31 (IS-31)",
        "group": "intelsat",
        "lat": 0.019970311143777817,
        "lon": 83.23100483686635,
        "alt_km": 35790.86526895201,
        "timestamp": "2025-12-22T05:49:03.150543+00:00",
        "meta_object_name": "INTELSAT 31 (IS-31)",
        "meta_object_id": "2016-035A",
        "meta_epoch": "2025-12-21T19:35:26.947968",
        "meta_mean_motion": 1.00269865,
        "meta_eccentricity": 0.0002135,
        "meta_inclination": 0.0309,
        "meta_ra_of_asc_node": 264.1816,
        "meta_arg_of_pericenter": 297.0048,
        "meta_mean_anomaly": 88.2558,
        "meta_ephemeris_type": 0,
        "meta_classification_type": "U",
        "meta_norad_cat_id": 41581,
        "meta_element_set_no": 999,
        "meta_rev_at_epoch": 3490,
        "meta_bstar": 0,
        "meta_mean_motion_dot": -1.28e-06,
        "meta_mean_motion_ddot": 0,
        "tle_line1": "1 41581U 16035A   25355.81628412 -.00000128  00000+0  00000+0 0  9996",
        "tle_line2": "2 41581   0.0309 264.1816 0002135 297.0048  88.2558  1.00269865 34901"
      },
      "geometry": {
        "type": "Point",
        "coordinates": [
          83.23100483686635,
          0.019970311143777817
        ]
      }
    },
    {
      "type": "Feature",
      "properties": {
        "norad_id": 41747,
        "name": "INTELSAT 36 (IS-36)",
        "group": "intelsat",
        "lat": -0.032915670642362234,
        "lon": -113.21376190535385,
        "alt_km": 35785.449004548704,
        "timestamp": "2025-12-22T05:49:03.150557+00:00",
        "meta_object_name": "INTELSAT 36 (IS-36)",
        "meta_object_id": "2016-053A",
        "meta_epoch": "2025-12-21T20:20:00.525120",
        "meta_mean_motion": 1.00271923,
        "meta_eccentricity": 0.0001249,
        "meta_inclination": 0.0102,
        "meta_ra_of_asc_node": 0.5102,
        "meta_arg_of_pericenter": 330.1115,
        "meta_mean_anomaly": 133.5356,
        "meta_ephemeris_type": 0,
        "meta_classification_type": "U",
        "meta_norad_cat_id": 41747,
        "meta_element_set_no": 999,
        "meta_rev_at_epoch": 3417,
        "meta_bstar": 0,
        "meta_mean_motion_dot": -2e-08,
        "meta_mean_motion_ddot": 0,
        "tle_line1": "1 41747U 16053A   25355.84722830 -.00000002  00000+0  00000+0 0  9993",
        "tle_line2": "2 41747   0.0102   0.5102 0001249 330.1115 133.5356  1.00271923 34172"
      },
      "geometry": {
        "type": "Point",
        "coordinates": [
          -113.21376190535385,
          -0.032915670642362234
        ]
      }
    },
    {
      "type": "Feature",
      "properties": {
        "norad_id": 41945,
        "name": "INTELSAT 32E (IS-32E)",
        "group": "intelsat",
        "lat": 0.04056028164908743,
        "lon": 135.1206597604362,
        "alt_km": 35788.302475450815,
        "timestamp": "2025-12-22T05:49:03.150568+00:00",
        "meta_object_name": "INTELSAT 32E (IS-32E)",
        "meta_object_id": "2017-007B",
        "meta_epoch": "2025-12-21T08:28:38.563104",
        "meta_mean_motion": 1.00267685,
        "meta_eccentricity": 7.959e-05,
        "meta_inclination": 0.0278,
        "meta_ra_of_asc_node": 70.3074,
        "meta_arg_of_pericenter": 317.4297,
        "meta_mean_anomaly": 146.417,
        "meta_ephemeris_type": 0,
        "meta_classification_type": "U",
        "meta_norad_cat_id": 41945,
        "meta_element_set_no": 999,
        "meta_rev_at_epoch": 3244,
        "meta_bstar": 0,
        "meta_mean_motion_dot": -2.46e-06,
        "meta_mean_motion_ddot": 0,
        "tle_line1": "1 41945U 17007B   25355.35322411 -.00000246  00000+0  00000+0 0  9990",
        "tle_line2": "2 41945   0.0278  70.3074 0000795 317.4297 146.4170  1.00267685 32448"
      },
      "geometry": {
        "type": "Point",
        "coordinates": [
          135.1206597604362,
          0.04056028164908743
        ]
      }
    },
    {
      "type": "Feature",
      "properties": {
        "norad_id": 42818,
        "name": "INTELSAT 35E (IS-35E)",
        "group": "intelsat",
        "lat": 0.033840269563921395,
        "lon": 143.78674220116045,
        "alt_km": 35792.64294847219,
        "timestamp": "2025-12-22T05:49:03.150580+00:00",
        "meta_object_name": "INTELSAT 35E (IS-35E)",
        "meta_object_id": "2017-041A",
        "meta_epoch": "2025-12-21T18:10:12.611424",
        "meta_mean_motion": 1.00268445,
        "meta_eccentricity": 0.0001873,
        "meta_inclination": 0.0224,
        "meta_ra_of_asc_node": 9.7462,
        "meta_arg_of_pericenter": 268.831,
        "meta_mean_anomaly": 50.0494,
        "meta_ephemeris_type": 0,
        "meta_classification_type": "U",
        "meta_norad_cat_id": 42818,
        "meta_element_set_no": 999,
        "meta_rev_at_epoch": 3103,
        "meta_bstar": 0,
        "meta_mean_motion_dot": 0,
        "meta_mean_motion_ddot": 0,
        "tle_line1": "1 42818U 17041A   25355.75709041  .00000000  00000+0  00000+0 0  9997",
        "tle_line2": "2 42818   0.0224   9.7462 0001873 268.8310  50.0494  1.00268445 31037"
      },
      "geometry": {
        "type": "Point",
        "coordinates": [
          143.78674220116045,
          0.033840269563921395
        ]
      }
    },
    {
      "type": "Feature",
      "properties": {
        "norad_id": 42950,
        "name": "INTELSAT 37E (IS-37E)",
        "group": "intelsat",
        "lat": 0.02535099539388978,
        "lon": 160.27872233238128,
        "alt_km": 35788.023684194326,
        "timestamp": "2025-12-22T05:49:03.150592+00:00",
        "meta_object_name": "INTELSAT 37E (IS-37E)",
        "meta_object_id": "2017-059A",
        "meta_epoch": "2025-12-21T07:58:36.876864",
        "meta_mean_motion": 1.00273331,
        "meta_eccentricity": 0.00028416,
        "meta_inclination": 0.0189,
        "meta_ra_of_asc_node": 20.7753,
        "meta_arg_of_pericenter": 240.6513,
        "meta_mean_anomaly": 290.3802,
        "meta_ephemeris_type": 0,
        "meta_classification_type": "U",
        "meta_norad_cat_id": 42950,
        "meta_element_set_no": 999,
        "meta_rev_at_epoch": 3028,
        "meta_bstar": 0,
        "meta_mean_motion_dot": -1.18e-06,
        "meta_mean_motion_ddot": 0,
        "tle_line1": "1 42950U 17059A   25355.33237126 -.00000118  00000+0  00000+0 0  9998",
        "tle_line2": "2 42950   0.0189  20.7753 0002841 240.6513 290.3802  1.00273331 30287"
      },
      "geometry": {
        "type": "Point",
        "coordinates": [
          160.27872233238128,
          0.02535099539388978
        ]
      }
    },
    {
      "type": "Feature",
      "properties": {
        "norad_id": 43632,
        "name": "AZERSPACE 2 (IS-38)",
        "group": "intelsat",
        "lat": -0.033673569115269995,
        "lon": -136.59085831751207,
        "alt_km": 35782.976283114345,
        "timestamp": "2025-12-22T05:49:03.150604+00:00",
        "meta_object_name": "AZERSPACE 2 (IS-38)",
        "meta_object_id": "2018-074A",
        "meta_epoch": "2025-12-21T18:32:21.878016",
        "meta_mean_motion": 1.00269948,
        "meta_eccentricity": 0.0001157,
        "meta_inclination": 0.0186,
        "meta_ra_of_asc_node": 344.3272,
        "meta_arg_of_pericenter": 282.3188,
        "meta_mean_anomaly": 147.1477,
        "meta_ephemeris_type": 0,
        "meta_classification_type": "U",
        "meta_norad_cat_id": 43632,
        "meta_element_set_no": 999,
        "meta_rev_at_epoch": 2666,
        "meta_bstar": 0,
        "meta_mean_motion_dot": 1.59e-06,
        "meta_mean_motion_ddot": 0,
        "tle_line1": "1 43632U 18074A   25355.77247544  .00000159  00000+0  00000+0 0  9991",
        "tle_line2": "2 43632   0.0186 344.3272 0001157 282.3188 147.1477  1.00269948 26666"
      },
      "geometry": {
        "type": "Point",
        "coordinates": [
          -136.59085831751207,
          -0.033673569115269995
        ]
      }
    },
    {
      "type": "Feature",
      "properties": {
        "norad_id": 43633,
        "name": "HORIZONS-3E",
        "group": "intelsat",
        "lat": 0.005882218759740953,
        "lon": -12.705366845648202,
        "alt_km": 35783.94321984158,
        "timestamp": "2025-12-22T05:49:03.150616+00:00",
        "meta_object_name": "HORIZONS-3E",
        "meta_object_id": "2018-074B",
        "meta_epoch": "2025-12-21T19:08:14.553024",
        "meta_mean_motion": 1.0027168,
        "meta_eccentricity": 6.49e-05,
        "meta_inclination": 0.0094,
        "meta_ra_of_asc_node": 220.9416,
        "meta_arg_of_pericenter": 88.5236,
        "meta_mean_anomaly": 237.1914,
        "meta_ephemeris_type": 0,
        "meta_classification_type": "U",
        "meta_norad_cat_id": 43633,
        "meta_element_set_no": 999,
        "meta_rev_at_epoch": 2656,
        "meta_bstar": 0,
        "meta_mean_motion_dot": 0,
        "meta_mean_motion_ddot": 0,
        "tle_line1": "1 43633U 18074B   25355.79739066  .00000000  00000+0  00000+0 0  9994",
        "tle_line2": "2 43633   0.0094 220.9416 0000649  88.5236 237.1914  1.00271680 26560"
      },
      "geometry": {
        "type": "Point",
        "coordinates": [
          -12.705366845648202,
          0.005882218759740953
        ]
      }
    }
  ]
}